HST                     
1 20580U 90037B   26158.29828937  .00006010  00000+0  18954-3 0  9990
2 20580  28.4712 148.1547 0001938  44.7656 315.3096 15.30642118787059
POLAR                   
1 23802U 96013A   26158.02404795  .00000119  00000+0  00000+0 0  9996
2 23802  79.8419 227.1714 6460466 209.4311  89.2180  1.29846147144729
SWAS                    
1 25560U 98071A   26159.00412721  .00004974  00000+0  31519-3 0  9998
2 25560  69.8961 251.1992 0008927 268.2702  91.7439 15.09569323495881
CXO                     
1 25867U 99040B   26161.44248450  .00000667  00000+0  00000+0 0  9994
2 25867  56.0540 116.8503 7852548 310.2578   0.2529  0.37805334 17299
XMM-NEWTON              
1 25989U 99066A   26157.37875651  .00000096  00000+0  00000+0 0  9999
2 25989  64.5482 283.1267 4678331  65.0797   0.1118  0.50125302 22956
TERRA                   
1 25994U 99068A   26159.18941899  .00000394  00000+0  89149-4 0  9993
2 25994  97.9459 209.0921 0000938 232.9504 220.4761 14.61096061408291
CLUSTER II-FM7 (SAMBA)  
1 26410U 00041A   26161.44581899  .00004459  00000+0  00000+0 0  9992
2 26410 149.9133  49.6129 9048172 266.6863 359.9094  0.44840214 20271
CLUSTER II-FM8 (TANGO)  
1 26464U 00045B   26157.18212104  .00004544  00000+0  00000+0 0  9996
2 26464 150.1407  49.6985 9046201 266.6195   3.2041  0.44406384 20263
ODIN                    
1 26702U 01007A   26159.06855770  .00163930  00000+0  11910-2 0  9991
2 26702  97.3856 199.4433 0006608 154.2551 205.9043 15.72855402387968
TIMED                   
1 26998U 01055B   26158.70833299  .00001672  00000+0  15537-3 0  9997
2 26998  74.0680 254.1033 0000586 355.2108   4.9071 14.95274661329406
CORIOLIS                
1 27640U 03001A   26159.03671737  .00000115  00000+0  74635-4 0  9995
2 27640  98.7126 166.0613 0012961 236.8582 123.1351 14.19942398212922
SORCE                   
1 27651U 03004A   26158.70861574  .00003445  00000+0  25720-3 0  9992
2 27651  39.9917 315.7552 0017869 339.7662  20.2423 15.03662902270473
MOST                    
1 27843U 03031D   26158.98930716  .00000080  00000+0  56672-4 0  9993
2 27843  98.7045 166.8436 0008707 280.5785  79.4412 14.21320667189401
SCISAT 1                
1 27858U 03036A   26159.17663858  .00000559  00000+0  76127-4 0  9994
2 27858  73.9287 189.2458 0008687 258.1601 101.8601 14.81438911230111
SWIFT                   
1 28485U 04047A   26157.62516102  .00061964  00000+0  53892-3 0  9991
2 28485  20.5528 266.3162 0002758 138.0120 222.0537 15.67271412185207
HINODE (SOLAR-B)        
1 29479U 06041A   26159.05567238  .00000843  00000+0  15323-3 0  9992
2 29479  98.0547 175.3428 0016440 321.0348  38.9672 14.68610972 53537
SHIJIAN-6 02A (SJ-6 02A)
1 29505U 06046A   26159.18615959  .00006714  00000+0  34474-3 0  9996
2 29505  97.6364 200.1855 0003646 146.7430 213.4032 15.16837606 70907
SHIJIAN-6 02B (SJ-6 02B)
1 29506U 06046B   26159.21562365  .00001548  00000+0  12463-3 0  9997
2 29506  97.7162 188.3297 0014711  86.3603 273.9303 15.01354515 69398
FGRST (GLAST)           
1 33053U 08029A   26158.99603507  .00004036  00000+0  14871-3 0  9990
2 33053  25.5826 268.3003 0007830 214.9845 145.0179 15.23903473994430
SDO                     
1 36395U 10005A   26158.33980132 -.00000060  00000+0  00000+0 0  9998
2 36395  34.6306  86.4930 0001446  51.5823 138.0028  1.00270991 59969
CRYOSAT 2               
1 36508U 10013A   26159.12187454  .00000151  00000+0  36787-4 0  9993
2 36508  92.0348 275.0985 0002232  86.0937 274.0525 14.51896617856763
X-SAT                   
1 37389U 11015C   26159.23923642  .00000080  00000+0  51361-4 0  9999
2 37389  98.3512 136.6893 0014516  14.4460 345.7133 14.25203605786401
GCOM-W1 (SHIZUKU)       
1 38337U 12025A   26159.09616562  .00000543  00000+0  13057-3 0  9992
2 38337  98.2020  99.7896 0001862  81.8255 288.8364 14.57116560747712
NUSTAR                  
1 38358U 12031A   26159.16672454  .00007946  00000+0  43803-3 0  9998
2 38358   6.0256 101.7809 0008136 327.0194 312.4616 15.08711671  1302
NEOSSAT                 
1 39089U 13009D   26159.01088664  .00000155  00000+0  68237-4 0  9998
2 39089  98.4176 339.2620 0009781 274.4637  85.5431 14.35823288695425
BRITE-AUSTRIA           
1 39091U 13009F   26158.73546881  .00000212  00000+0  86658-4 0  9990
2 39091  98.3993 338.4054 0008958 268.4216  91.5944 14.36538507695690
IRIS                    
1 39197U 13033A   26159.14114198  .00001111  00000+0  13330-3 0  9997
2 39197  97.9336 358.4465 0024252 352.1034   7.9796 14.85867394699036
HISAKI (SPRINT-A)       
1 39253U 13049A   26158.99601678  .00000131  00000+0  88965-4 0  9991
2 39253  29.7207 266.7414 0136906 302.3712  56.3675 13.55543740630170
CASSIOPE                
1 39265U 13055A   26159.10605793  .00044341 -53464-6  48934-3 0  9999
2 39265  80.9146  77.7409 0295754  92.8911 270.6205 15.24370033666289
STSAT-3                 
1 39422U 13066G   26159.19010546  .00002933  00000+0  22396-3 0  9996
2 39422  97.6216 129.2237 0010952  68.6357 291.6036 15.02703484682851
SWARM B                 
1 39451U 13067A   26159.16470859  .00003477  00000+0  12419-3 0  9992
2 39451  87.7441 345.0587 0003386  90.4444 269.7193 15.28496583681869
